{
  "type": "FeatureCollection",
  "name": "roads",
  "crs": { "type": "name", "properties": { "name": "urn:ogc:def:crs:OGC:1.3:CRS84" } },
  "features": [
    {
      "type": "Feature",
      "properties": { "id": "R01", "source_id": "S01", "target_id": "S10", "road_type": "PRIMARY", "name": "Trishuli - Gosaikunda Highway", "length_km": 14.8, "status": "IMPASSABLE", "risk_score": 0.95, "provenance": "LIVE" },
      "geometry": { "type": "LineString", "coordinates": [ [85.1325, 27.9012], [85.1550, 27.9250], [85.1850, 27.9600], [85.2150, 27.9950] ] }
    },
    {
      "type": "Feature",
      "properties": { "id": "R02", "source_id": "S01", "target_id": "S03", "road_type": "SECONDARY", "name": "Trishuli - Nuwakot Connector", "length_km": 6.2, "status": "ACCESSIBLE", "risk_score": 0.28, "provenance": "LIVE" },
      "geometry": { "type": "LineString", "coordinates": [ [85.1325, 27.9012], [85.1480, 27.9080], [85.1680, 27.9150] ] }
    },
    {
      "type": "Feature",
      "properties": { "id": "R03", "source_id": "S01", "target_id": "S02", "road_type": "DIRT_TRACK", "name": "Southern Ridge Bypass (Recommended Reroute)", "length_km": 11.4, "status": "ACCESSIBLE", "risk_score": 0.18, "provenance": "SIMULATED" },
      "geometry": { "type": "LineString", "coordinates": [ [85.1325, 27.9012], [85.1150, 27.8750], [85.1010, 27.8540] ] }
    },
    {
      "type": "Feature",
      "properties": { "id": "R04", "source_id": "S02", "target_id": "S03", "road_type": "SECONDARY", "name": "Dhading - Nuwakot Ridge Road", "length_km": 9.5, "status": "ACCESSIBLE", "risk_score": 0.32, "provenance": "LIVE" },
      "geometry": { "type": "LineString", "coordinates": [ [85.1010, 27.8540], [85.1350, 27.8820], [85.1680, 27.9150] ] }
    },
    {
      "type": "Feature",
      "properties": { "id": "R05", "source_id": "S03", "target_id": "S04", "road_type": "PRIMARY", "name": "Nuwakot - Langtang North Arterial", "length_km": 13.8, "status": "PARTIALLY_BLOCKED", "risk_score": 0.68, "provenance": "LIVE" },
      "geometry": { "type": "LineString", "coordinates": [ [85.1680, 27.9150], [85.1950, 27.9650], [85.2300, 28.0200] ] }
    },
    {
      "type": "Feature",
      "properties": { "id": "R06", "source_id": "S04", "target_id": "S10", "road_type": "SECONDARY", "name": "Langtang Pass Link", "length_km": 5.2, "status": "IMPASSABLE", "risk_score": 0.92, "provenance": "LIVE" },
      "geometry": { "type": "LineString", "coordinates": [ [85.2300, 28.0200], [85.2200, 28.0050], [85.2150, 27.9950] ] }
    },
    {
      "type": "Feature",
      "properties": { "id": "R07", "source_id": "S04", "target_id": "S06", "road_type": "DIRT_TRACK", "name": "Helambu Highland Link", "length_km": 9.8, "status": "PARTIALLY_BLOCKED", "risk_score": 0.74, "provenance": "HISTORICAL" },
      "geometry": { "type": "LineString", "coordinates": [ [85.2300, 28.0200], [85.2650, 27.9900], [85.2950, 27.9620] ] }
    },
    {
      "type": "Feature",
      "properties": { "id": "R08", "source_id": "S03", "target_id": "S06", "road_type": "SECONDARY", "name": "Nuwakot - Helambu East Traverse", "length_km": 14.2, "status": "ACCESSIBLE", "risk_score": 0.35, "provenance": "SIMULATED" },
      "geometry": { "type": "LineString", "coordinates": [ [85.1680, 27.9150], [85.2350, 27.9400], [85.2950, 27.9620] ] }
    },
    {
      "type": "Feature",
      "properties": { "id": "R09", "source_id": "S02", "target_id": "S07", "road_type": "PRIMARY", "name": "Dhading - Sundarijal Corridor", "length_km": 16.5, "status": "ACCESSIBLE", "risk_score": 0.22, "provenance": "LIVE" },
      "geometry": { "type": "LineString", "coordinates": [ [85.1010, 27.8540], [85.1600, 27.8200], [85.2210, 27.7850] ] }
    },
    {
      "type": "Feature",
      "properties": { "id": "R10", "source_id": "S07", "target_id": "S08", "road_type": "HIGHWAY", "name": "Sundarijal - Chautara Expressway", "length_km": 12.8, "status": "ACCESSIBLE", "risk_score": 0.15, "provenance": "LIVE" },
      "geometry": { "type": "LineString", "coordinates": [ [85.2210, 27.7850], [85.2650, 27.8300], [85.3140, 27.8780] ] }
    }
  ]
}
