{
  "type": "FeatureCollection",
  "name": "settlements",
  "crs": { "type": "name", "properties": { "name": "urn:ogc:def:crs:OGC:1.3:CRS84" } },
  "features": [
    { "type": "Feature", "properties": { "id": "S01", "name": "Settlement A (Trishuli Valley)", "shortName": "Settlement A", "latitude": 27.9012, "longitude": 85.1325, "population": 12500, "elevation_m": 620.0, "slope_deg": 8.5, "baseRisk": 0.88, "provenance": "LIVE" }, "geometry": { "type": "Point", "coordinates": [ 85.1325, 27.9012 ] } },
    { "type": "Feature", "properties": { "id": "S02", "name": "Settlement B (Dhading Ridge)", "shortName": "Settlement B", "latitude": 27.8540, "longitude": 85.1010, "population": 8400, "elevation_m": 1420.0, "slope_deg": 18.2, "baseRisk": 0.65, "provenance": "LIVE" }, "geometry": { "type": "Point", "coordinates": [ 85.1010, 27.8540 ] } },
    { "type": "Feature", "properties": { "id": "S03", "name": "Settlement C (Nuwakot Hilltop)", "shortName": "Settlement C", "latitude": 27.9150, "longitude": 85.1680, "population": 6200, "elevation_m": 1780.0, "slope_deg": 24.0, "baseRisk": 0.52, "provenance": "SIMULATED" }, "geometry": { "type": "Point", "coordinates": [ 85.1680, 27.9150 ] } },
    { "type": "Feature", "properties": { "id": "S04", "name": "Settlement D (Langtang Foothills)", "shortName": "Settlement D", "latitude": 28.0200, "longitude": 85.2300, "population": 3100, "elevation_m": 2850.0, "slope_deg": 38.5, "baseRisk": 0.94, "provenance": "LIVE" }, "geometry": { "type": "Point", "coordinates": [ 85.2300, 28.0200 ] } },
    { "type": "Feature", "properties": { "id": "S05", "name": "Settlement E (Melamchi Basin)", "shortName": "Settlement E", "latitude": 27.8310, "longitude": 85.3780, "population": 7800, "elevation_m": 890.0, "slope_deg": 12.0, "baseRisk": 0.45, "provenance": "HISTORICAL" }, "geometry": { "type": "Point", "coordinates": [ 85.3780, 27.8310 ] } },
    { "type": "Feature", "properties": { "id": "S06", "name": "Settlement F (Helambu Highland)", "shortName": "Settlement F", "latitude": 27.9620, "longitude": 85.2950, "population": 2400, "elevation_m": 3120.0, "slope_deg": 41.2, "baseRisk": 0.91, "provenance": "SIMULATED" }, "geometry": { "type": "Point", "coordinates": [ 85.2950, 27.9620 ] } },
    { "type": "Feature", "properties": { "id": "S07", "name": "Settlement G (Sundarijal Outpost)", "shortName": "Settlement G", "latitude": 27.7850, "longitude": 85.2210, "population": 4500, "elevation_m": 1550.0, "slope_deg": 19.8, "baseRisk": 0.38, "provenance": "LIVE" }, "geometry": { "type": "Point", "coordinates": [ 85.2210, 27.7850 ] } },
    { "type": "Feature", "properties": { "id": "S08", "name": "Settlement H (Chautara Summit)", "shortName": "Settlement H", "latitude": 27.8780, "longitude": 85.3140, "population": 9200, "elevation_m": 1620.0, "slope_deg": 22.4, "baseRisk": 0.42, "provenance": "HISTORICAL" }, "geometry": { "type": "Point", "coordinates": [ 85.3140, 27.8780 ] } },
    { "type": "Feature", "properties": { "id": "S09", "name": "Settlement I (Bahrabise Gorge)", "shortName": "Settlement I", "latitude": 27.7920, "longitude": 85.1950, "population": 5600, "elevation_m": 980.0, "slope_deg": 33.0, "baseRisk": 0.85, "provenance": "SIMULATED" }, "geometry": { "type": "Point", "coordinates": [ 85.1950, 27.7920 ] } },
    { "type": "Feature", "properties": { "id": "S10", "name": "Settlement J (Gosaikunda Pass Junction)", "shortName": "Settlement J", "latitude": 27.9950, "longitude": 85.2150, "population": 1200, "elevation_m": 3190.0, "slope_deg": 39.7, "baseRisk": 0.96, "provenance": "LIVE" }, "geometry": { "type": "Point", "coordinates": [ 85.2150, 27.9950 ] } }
  ]
}
